NORAD_CAT_ID,OBJECT_NAME,OBJECT_TYPE,EPOCH,MEAN_MOTION,ECCENTRICITY,INCLINATION,RA_OF_ASC_NODE,ARG_OF_PERICENTER,MEAN_ANOMALY,BSTAR,MEAN_MOTION_DOT,MEAN_MOTION_DDOT,TLE_LINE0,TLE_LINE1,TLE_LINE2,SEMIMAJOR_AXIS,PERIOD,APOGEE,PERIGEE,DECAYED
52863.0,STARLINK-4270,PAYLOAD,2024-07-11 12:05:01,15.08841533,0.0001415,53.2161,225.3973,94.6553,265.4601,7.352e-05,8.82e-06,0.0,0 STARLINK-4270,1 52863U 22062AK  24193.50349112  .00000882  00000-0  73520-4 0  9999,2 52863  53.2161 225.3973 0001415  94.6553 265.4601 15.08841533114411,6917.876,95.437,540.72,538.762,0.0
52863.0,STARLINK-4270,PAYLOAD,2024-07-12 05:34:16,15.08838991,0.0001399,53.2157,222.1256,96.4931,263.6221,7.7889e-05,9.52e-06,0.0,0 STARLINK-4270,1 52863U 22062AK  24194.23213349  .00000952  00000-0  77889-4 0  9992,2 52863  53.2157 222.1256 0001399  96.4931 263.6221 15.08838991115015,6917.883,95.438,540.716,538.781,0.0
52863.0,STARLINK-4270,PAYLOAD,2024-07-12 11:55:48,15.08838819,0.0001315,53.2152,220.9371,89.0586,271.0557,7.0269e-05,8.31e-06,0.0,0 STARLINK-4270,1 52863U 22062AK  24194.49709440  .00000831  00000-0  70269-4 0  9993,2 52863  53.2152 220.9371 0001315  89.0586 271.0557 15.08838819114569,6917.884,95.438,540.659,538.839,0.0
52863.0,STARLINK-4270,PAYLOAD,2024-07-12 18:17:21,15.08841978,0.0001331,53.2154,219.748,89.5549,270.5595,7.8283e-05,9.58e-06,0.0,0 STARLINK-4270,1 52863U 22062AK  24194.76205214  .00000958  00000-0  78283-4 0  9997,2 52863  53.2154 219.7480 0001331  89.5549 270.5595 15.08841978114601,6917.874,95.437,540.66,538.819,0.0
52863.0,STARLINK-4270,PAYLOAD,2024-07-13 08:35:49,15.08836948,0.0001374,53.2161,217.0721,89.8672,270.2477,2.2339e-05,6.8e-07,0.0,0 STARLINK-4270,1 52863U 22062AK  24195.35821754  .00000068  00000-0  22339-4 0  9999,2 52863  53.2161 217.0721 0001374  89.8672 270.2477 15.08836948115186,6917.89,95.438,540.705,538.804,0.0
52863.0,STARLINK-4270,PAYLOAD,2024-07-13 18:08:08,15.08839638,0.0001392,53.2163,215.2878,89.2721,270.843,5.2458e-05,5.47e-06,0.0,0 STARLINK-4270,1 52863U 22062AK  24195.75565569  .00000547  00000-0  52458-4 0  9999,2 52863  53.2163 215.2878 0001392  89.2721 270.8430 15.08839638114756,6917.881,95.438,540.709,538.784,0.0
52863.0,STARLINK-4270,PAYLOAD,2024-07-14 05:15:49,15.0885072,0.0001456,53.2162,213.2064,103.1296,256.9859,0.00016458,2.333e-05,0.0,0 STARLINK-4270,1 52863U 22062AK  24196.21932586  .00002333  00000-0  16458-3 0  9992,2 52863  53.2162 213.2064 0001456 103.1296 256.9859 15.08850720115312,6917.848,95.437,540.72,538.705,0.0
52863.0,STARLINK-4270,PAYLOAD,2024-07-14 08:26:35,15.08855084,0.0001313,53.2162,212.6116,91.1433,268.9709,0.00019856,2.875e-05,0.0,0 STARLINK-4270,1 52863U 22062AK  24196.35180179  .00002875  00000-0  19856-3 0  9996,2 52863  53.2162 212.6116 0001313  91.1433 268.9709 15.08855084114846,6917.834,95.437,540.608,538.791,0.0
52863.0,STARLINK-4270,PAYLOAD,2024-07-14 17:58:53,15.08860123,0.000131,53.2162,210.8272,86.3681,273.746,0.00021178,3.086e-05,0.0,0 STARLINK-4270,1 52863U 22062AK  24196.74923488  .00003086  00000-0  21178-3 0  9992,2 52863  53.2162 210.8272 0001310  86.3681 273.7460 15.08860123114902,6917.819,95.436,540.59,538.778,0.0
52863.0,STARLINK-4270,PAYLOAD,2024-07-15 05:06:37,15.08832015,0.000134,53.2156,208.7449,88.9312,271.1834,1.859e-05,8e-08,0.0,0 STARLINK-4270,1 52863U 22062AK  24197.21293792  .00000008  00000-0  18590-4 0  9999,2 52863  53.2156 208.7449 0001340  88.9312 271.1834 15.08832015115467,6917.905,95.438,540.697,538.843,0.0
52863.0,STARLINK-4270,PAYLOAD,2024-07-15 09:52:47,15.08834939,0.0001377,53.2156,207.8523,85.7164,274.3985,2.5699e-05,1.21e-06,0.0,0 STARLINK-4270,1 52863U 22062AK  24197.41165683  .00000121  00000-0  25699-4 0  9992,2 52863  53.2156 207.8523 0001377  85.7164 274.3985 15.08834939115009,6917.896,95.438,540.713,538.808,0.0
52863.0,STARLINK-4270,PAYLOAD,2024-07-15 17:49:42,15.08838074,0.0001365,53.2154,206.3662,88.9089,271.2059,2.5245e-05,1.14e-06,0.0,0 STARLINK-4270,1 52863U 22062AK  24197.74285550  .00000114  00000-0  25245-4 0  9993,2 52863  53.2154 206.3662 0001365  88.9089 271.2059 15.08838074115050,6917.886,95.438,540.696,538.807,0.0
52863.0,STARLINK-4270,PAYLOAD,2024-07-16 09:43:33,15.08846263,0.0001343,53.2154,203.392,88.5374,271.5772,-7.1375e-05,-1.424e-05,0.0,0 STARLINK-4270,1 52863U 22062AK  24198.40525333 -.00001424  00000-0 -71375-4 0  9995,2 52863  53.2154 203.3920 0001343  88.5374 271.5772 15.08846263115642,6917.861,95.437,540.655,538.797,0.0
52863.0,STARLINK-4270,PAYLOAD,2024-07-17 06:23:35,15.08833225,0.0001446,53.2156,199.5259,88.8636,271.2522,0.00012658,1.727e-05,0.0,0 STARLINK-4270,1 52863U 22062AK  24199.26637832  .00001727  00000-0  12658-3 0  9990,2 52863  53.2156 199.5259 0001446  88.8636 271.2522 15.08833225115771,6917.901,95.438,540.766,538.766,0.0
52863.0,STARLINK-4270,PAYLOAD,2024-07-18 06:14:22,15.08842371,0.0001465,53.2145,195.0651,89.9615,270.1545,0.00022096,3.231e-05,0.0,0 STARLINK-4270,1 52863U 22062AK  24200.25997879  .00003231  00000-0  22096-3 0  9991,2 52863  53.2145 195.0651 0001465  89.9615 270.1545 15.08842371115434,6917.873,95.437,540.752,538.725,0.0
52863.0,STARLINK-4270,PAYLOAD,2024-07-19 06:05:09,15.08840827,0.000151,53.2152,190.6046,93.3214,266.7951,0.00012732,1.739e-05,0.0,0 STARLINK-4270,1 52863U 22062AK  24201.25358024  .00001739  00000-0  12732-3 0  9992,2 52863  53.2152 190.6046 0001510  93.3214 266.7951 15.08840827116073,6917.878,95.438,540.787,538.698,0.0
52863.0,STARLINK-4270,PAYLOAD,2024-07-19 09:15:55,15.08840125,0.0001489,53.2153,190.0099,93.0709,267.0453,0.00010704,1.416e-05,0.0,0 STARLINK-4270,1 52863U 22062AK  24201.38606061  .00001416  00000-0  10704-3 0  9992,2 52863  53.2153 190.0099 0001489  93.0709 267.0453 15.08840125115607,6917.88,95.438,540.775,538.715,0.0
52863.0,STARLINK-4270,PAYLOAD,2024-07-20 05:55:59,15.08796245,0.000151,53.2165,186.1441,97.7205,262.3958,-0.00032848,-5.506e-05,0.0,0 STARLINK-4270,1 52863U 22062AK  24202.24721740 -.00005506  00000-0 -32848-3 0  9999,2 52863  53.2165 186.1441 0001510  97.7205 262.3958 15.08796245116224,6918.014,95.44,540.924,538.835,0.0
52863.0,STARLINK-4270,PAYLOAD,2024-07-20 09:06:46,15.08790134,0.000158,53.2164,185.5502,97.2675,262.8497,-0.00036596,-6.1e-05,0.0,0 STARLINK-4270,1 52863U 22062AK  24202.37970540 -.00006100  00000-0 -36596-3 0  9992,2 52863  53.2164 185.5502 0001580  97.2675 262.8497 15.08790134115758,6918.033,95.441,540.991,538.805,0.0
52863.0,STARLINK-4270,PAYLOAD,2024-07-21 05:46:44,15.08840444,0.0001843,53.2164,181.6871,106.7913,253.3282,0.0001452,2.024e-05,0.0,0 STARLINK-4270,1 52863U 22062AK  24203.24079274  .00002024  00000-0  14520-3 0  9995,2 52863  53.2164 181.6871 0001843 106.7913 253.3282 15.08840444116373,6917.879,95.438,541.019,538.469,0.0
52863.0,STARLINK-4270,PAYLOAD,2024-07-22 08:48:17,15.08850854,0.000206,53.2154,176.6314,112.3662,247.7549,0.00035497,5.367e-05,0.0,0 STARLINK-4270,1 52863U 22062AK  24204.36687029  .00005367  00000-0  35497-3 0  9991,2 52863  53.2154 176.6314 0002060 112.3662 247.7549 15.08850854116542,6917.847,95.437,541.137,538.287,0.0
52863.0,STARLINK-4270,PAYLOAD,2024-07-23 03:52:54,15.08853516,0.0001981,53.2149,173.0598,106.0224,254.0986,5.2093e-05,5.41e-06,0.0,0 STARLINK-4270,1 52863U 22062AK  24205.16174543  .00000541  00000-0  52093-4 0  9993,2 52863  53.2149 173.0598 0001981 106.0224 254.0986 15.08853516116663,6917.839,95.437,541.075,538.334,0.0
52863.0,STARLINK-4270,PAYLOAD,2024-07-23 21:22:09,15.08839662,0.0002482,53.2144,169.7877,101.9257,258.2013,-0.00016748,-2.953e-05,0.0,0 STARLINK-4270,1 52863U 22062AK  24205.89038890 -.00002953  00000-0 -16748-3 0  9994,2 52863  53.2144 169.7877 0002482 101.9257 258.2013 15.08839662116772,6917.881,95.438,541.463,538.029,0.0
52863.0,STARLINK-4270,PAYLOAD,2024-07-24 05:19:05,15.08838155,0.0001857,53.2157,168.3022,107.8056,252.3139,-0.00011056,-2.047e-05,0.0,0 STARLINK-4270,1 52863U 22062AK  24206.22159645 -.00002047  00000-0 -11056-3 0  9995,2 52863  53.2157 168.3022 0001857 107.8056 252.3139 15.08838155116826,6917.886,95.438,541.036,538.466,0.0
52863.0,STARLINK-4270,PAYLOAD,2024-07-25 03:34:28,15.08849374,0.0001756,53.2157,164.1399,113.2315,246.8863,0.00010274,1.348e-05,0.0,0 STARLINK-4270,1 52863U 22062AK  24207.14894165  .00001348  00000-0  10274-3 0  9992,2 52863  53.2157 164.1399 0001756 113.2315 246.8863 15.08849374116966,6917.852,95.437,540.932,538.502,0.0
52863.0,STARLINK-4270,PAYLOAD,2024-07-25 06:45:14,15.08858026,0.0001857,53.216,163.5446,117.7712,242.3469,7.7973e-05,9.54e-06,0.0,0 STARLINK-4270,1 52863U 22062AK  24207.28141660  .00000954  00000-0  77973-4 0  9994,2 52863  53.2160 163.5446 0001857 117.7712 242.3469 15.08858026116987,6917.825,95.436,540.975,538.406,0.0
52863.0,STARLINK-4270,PAYLOAD,2024-07-25 21:03:43,15.08825045,0.0001671,53.2172,160.863,122.2723,237.8431,0.00032527,4.89e-05,0.0,0 STARLINK-4270,1 52863U 22062AK  24207.87758908  .00004890  00000-0  32527-3 0  9996,2 52863  53.2172 160.8630 0001671 122.2723 237.8431 15.08825045117076,6917.926,95.439,540.947,538.635,0.0
52863.0,STARLINK-4270,PAYLOAD,2024-07-26 03:25:16,15.08836986,0.000163,53.2152,159.6736,115.9439,244.1721,7.5445e-05,9.13e-06,0.0,0 STARLINK-4270,1 52863U 22062AK  24208.14254843  .00000913  00000-0  75445-4 0  9995,2 52863  53.2152 159.6736 0001630 115.9439 244.1721 15.08836986116624,6917.89,95.438,540.882,538.627,0.0
52863.0,STARLINK-4270,PAYLOAD,2024-07-26 20:54:30,15.08853365,0.0001681,53.2163,156.4084,95.733,264.3854,3.4079e-05,2.55e-06,0.0,0 STARLINK-4270,1 52863U 22062AK  24208.87118154  .00000255  00000-0  34079-4 0  9996,2 52863  53.2163 156.4084 0001681  95.7330 264.3854 15.08853365117226,6917.84,95.437,540.867,538.542,0.0
52863.0,STARLINK-4270,PAYLOAD,2024-07-27 03:16:02,15.0885148,0.0001662,53.2163,155.2195,95.0529,265.0653,2.4226e-05,9.8e-07,0.0,0 STARLINK-4270,1 52863U 22062AK  24209.13614143  .00000098  00000-0  24226-4 0  9993,2 52863  53.2163 155.2195 0001662  95.0529 265.0653 15.08851480116778,6917.845,95.437,540.86,538.561,0.0
